NORAD_CAT_ID,OBJECT_NAME,OBJECT_TYPE,EPOCH,MEAN_MOTION,ECCENTRICITY,INCLINATION,RA_OF_ASC_NODE,ARG_OF_PERICENTER,MEAN_ANOMALY,BSTAR,MEAN_MOTION_DOT,MEAN_MOTION_DDOT,TLE_LINE0,TLE_LINE1,TLE_LINE2,SEMIMAJOR_AXIS,PERIOD,APOGEE,PERIGEE,DECAYED
53978.0,STARLINK-5148,PAYLOAD,2024-04-02 20:04:38,15.0884714,0.0001634,53.2163,147.7325,92.8857,267.2323,0.00043627,6.663e-05,0.0,0 STARLINK-5148,1 53978U 22125Q   24093.83655820  .00006663  00000-0  43627-3 0  9995,2 53978  53.2163 147.7325 0001634  92.8857 267.2323 15.08847140 82830,6917.859,95.437,540.854,538.593,0.0
53978.0,STARLINK-5148,PAYLOAD,2024-04-03 10:23:06,15.08860466,0.0001628,53.2164,145.0575,86.3688,273.749,0.00044113,6.743e-05,0.0,0 STARLINK-5148,1 53978U 22125Q   24094.43271059  .00006743  00000-0  44113-3 0  9990,2 53978  53.2164 145.0575 0001628  86.3688 273.7490 15.08860466 82992,6917.818,95.436,540.809,538.557,0.0
53978.0,STARLINK-5148,PAYLOAD,2024-04-04 10:13:53,15.08842543,0.0001524,53.2163,140.5954,81.8284,278.2881,-1.19e-05,-4.77e-06,0.0,0 STARLINK-5148,1 53978U 22125Q   24095.42631230 -.00000477  00000-0 -11900-4 0  9990,2 53978  53.2163 140.5954 0001524  81.8284 278.2881 15.08842543 83147,6917.873,95.437,540.792,538.683,0.0
53978.0,STARLINK-5148,PAYLOAD,2024-04-05 11:40:03,15.08844934,0.0001452,53.2156,135.8387,84.8171,275.2987,-1.1678e-06,-3.07e-06,0.0,0 STARLINK-5148,1 53978U 22125Q   24096.48615091 -.00000307  00000-0 -11678-5 0  9999,2 53978  53.2156 135.8387 0001452  84.8171 275.2987 15.08844934 83302,6917.865,95.437,540.735,538.726,0.0
53978.0,STARLINK-5148,PAYLOAD,2024-04-05 13:15:26,15.08848942,0.0001412,53.2161,135.5407,84.6951,275.4202,1.5509e-05,-4.1e-07,0.0,0 STARLINK-5148,1 53978U 22125Q   24096.55239091 -.00000041  00000-0  15509-4 0  9999,2 53978  53.2161 135.5407 0001412  84.6951 275.4202 15.08848942 83246,6917.853,95.437,540.695,538.741,0.0
53978.0,STARLINK-5148,PAYLOAD,2024-04-06 08:20:04,15.08835688,0.0001336,53.2156,131.9708,91.3386,268.7759,8.0454e-05,9.93e-06,0.0,0 STARLINK-5148,1 53978U 22125Q   24097.34727889  .00000993  00000-0  80454-4 0  9990,2 53978  53.2156 131.9708 0001336  91.3386 268.7759 15.08835688 83432,6917.894,95.438,540.683,538.834,0.0
53978.0,STARLINK-5148,PAYLOAD,2024-04-06 19:27:46,15.08836402,0.0001312,53.2153,129.8886,85.0083,275.1059,6.7554e-05,7.87e-06,0.0,0 STARLINK-5148,1 53978U 22125Q   24097.81096016  .00000787  00000-0  67554-4 0  9990,2 53978  53.2153 129.8886 0001312  85.0083 275.1059 15.08836402 83430,6917.891,95.438,540.664,538.849,0.0
53978.0,STARLINK-5148,PAYLOAD,2024-04-07 11:21:38,15.08836002,0.0001416,53.2158,126.9137,89.7744,270.341,1.818e-05,1e-08,0.0,0 STARLINK-5148,1 53978U 22125Q   24098.47336416  .00000001  00000-0  18180-4 0  9994,2 53978  53.2158 126.9137 0001416  89.7744 270.3410 15.08836002 83605,6917.893,95.438,540.737,538.778,0.0
53978.0,STARLINK-5148,PAYLOAD,2024-04-07 19:18:34,15.08840084,0.0001429,53.2161,125.4274,88.6955,271.4201,6.9553e-05,8.19e-06,0.0,0 STARLINK-5148,1 53978U 22125Q   24098.80456059  .00000819  00000-0  69553-4 0  9994,2 53978  53.2161 125.4274 0001429  88.6955 271.4201 15.08840084 83583,6917.88,95.438,540.734,538.757,0.0
53978.0,STARLINK-5148,PAYLOAD,2024-04-08 11:12:24,15.08847077,0.0001426,53.2157,122.4542,86.4383,273.6772,0.00015422,2.168e-05,0.0,0 STARLINK-5148,1 53978U 22125Q   24099.46695446  .00002168  00000-0  15422-3 0  9996,2 53978  53.2157 122.4542 0001426  86.4383 273.6772 15.08847077 83756,6917.859,95.437,540.71,538.737,0.0
53978.0,STARLINK-5148,PAYLOAD,2024-04-08 19:09:20,15.08844041,0.0001412,53.2157,120.9671,86.6762,273.4392,0.000134,1.846e-05,0.0,0 STARLINK-5148,1 53978U 22125Q   24099.79815645  .00001846  00000-0  13400-3 0  9993,2 53978  53.2157 120.9671 0001412  86.6762 273.4392 15.08844041 83732,6917.868,95.437,540.71,538.756,0.0
53978.0,STARLINK-5148,PAYLOAD,2024-04-09 04:41:39,15.08838809,0.0001428,53.2157,119.1835,85.5352,274.5803,0.00011847,1.598e-05,0.0,0 STARLINK-5148,1 53978U 22125Q   24100.19560051  .00001598  00000-0  11847-3 0  9995,2 53978  53.2157 119.1835 0001428  85.5352 274.5803 15.08838809 83862,6917.884,95.438,540.737,538.761,0.0
53978.0,STARLINK-5148,PAYLOAD,2024-04-09 07:52:26,15.08841121,0.0001431,53.2162,118.5881,88.5163,271.5993,0.00013268,1.824e-05,0.0,0 STARLINK-5148,1 53978U 22125Q   24100.32807889  .00001824  00000-0  13268-3 0  9994,2 53978  53.2162 118.5881 0001431  88.5163 271.5993 15.08841121 83812,6917.877,95.437,540.732,538.752,0.0
53978.0,STARLINK-5148,PAYLOAD,2024-04-10 10:53:59,15.08843326,0.0001475,53.2171,113.5331,89.2165,270.8997,5.9432e-06,-1.93e-06,0.0,0 STARLINK-5148,1 53978U 22125Q   24101.45415808 -.00000193  00000-0  59432-5 0  9999,2 53978  53.2171 113.5331 0001475  89.2165 270.8997 15.08843326 84057,6917.87,95.437,540.756,538.715,0.0
53978.0,STARLINK-5148,PAYLOAD,2024-04-10 17:15:32,15.08839265,0.0001465,53.2169,112.3436,88.6225,271.4935,-2.9512e-05,-7.58e-06,0.0,0 STARLINK-5148,1 53978U 22125Q   24101.71912115 -.00000758  00000-0 -29512-4 0  9994,2 53978  53.2169 112.3436 0001465  88.6225 271.4935 15.08839265 84029,6917.883,95.438,540.761,538.734,0.0
53978.0,STARLINK-5148,PAYLOAD,2024-04-11 04:23:14,15.08835466,0.0001405,53.2166,110.2621,88.6484,271.467,3.244e-06,-2.36e-06,0.0,0 STARLINK-5148,1 53978U 22125Q   24102.18280312 -.00000236  00000-0  32440-5 0  9998,2 53978  53.2166 110.2621 0001405  88.6484 271.4670 15.08835466 84160,6917.894,95.438,540.731,538.787,0.0
53978.0,STARLINK-5148,PAYLOAD,2024-04-11 07:34:00,15.08837676,0.000138,53.2162,109.6677,88.7572,271.3578,1.9368e-05,2e-07,0.0,0 STARLINK-5148,1 53978U 22125Q   24102.31528132  .00000020  00000-0  19368-4 0  9991,2 53978  53.2162 109.6677 0001380  88.7572 271.3578 15.08837676 84116,6917.887,95.438,540.707,538.798,0.0
53978.0,STARLINK-5148,PAYLOAD,2024-04-11 17:06:19,15.08836433,0.0001375,53.2162,107.8834,87.8037,272.3113,2.2015e-05,6.2e-07,0.0,0 STARLINK-5148,1 53978U 22125Q   24102.71272296  .00000062  00000-0  22015-4 0  9991,2 53978  53.2162 107.8834 0001375  87.8037 272.3113 15.08836433 84173,6917.891,95.438,540.708,538.805,0.0
53978.0,STARLINK-5148,PAYLOAD,2024-04-12 10:35:34,15.08834008,0.0001412,53.2164,104.6132,91.8627,268.2526,2.1612e-05,5.6e-07,0.0,0 STARLINK-5148,1 53978U 22125Q   24103.44136729  .00000056  00000-0  21612-4 0  9997,2 53978  53.2164 104.6132 0001412  91.8627 268.2526 15.08834008 84351,6917.899,95.438,540.741,538.787,0.0
53978.0,STARLINK-5148,PAYLOAD,2024-04-13 08:50:57,15.08841863,0.0001418,53.2166,100.4505,97.7134,262.4019,9.5601e-05,1.234e-05,0.0,0 STARLINK-5148,1 53978U 22125Q   24104.36872242  .00001234  00000-0  95601-4 0  9994,2 53978  53.2166 100.4505 0001418  97.7134 262.4019 15.08841863 84490,6917.875,95.437,540.721,538.759,0.0
53978.0,STARLINK-5148,PAYLOAD,2024-04-14 08:41:44,15.08843587,0.0001453,53.2171,95.9886,85.468,274.6478,9.3467e-05,1.2e-05,0.0,0 STARLINK-5148,1 53978U 22125Q   24105.36232358  .00001200  00000-0  93467-4 0  9994,2 53978  53.2171  95.9886 0001453  85.4680 274.6478 15.08843587 84573,6917.869,95.437,540.74,538.729,0.0
53978.0,STARLINK-5148,PAYLOAD,2024-04-15 03:46:22,15.08844447,0.000163,53.2178,92.4191,78.0395,282.0779,5.4282e-05,5.76e-06,0.0,0 STARLINK-5148,1 53978U 22125Q   24106.15720449  .00000576  00000-0  54282-4 0  9992,2 53978  53.2178  92.4191 0001630  78.0395 282.0779 15.08844447 84763,6917.867,95.437,540.859,538.604,0.0
53978.0,STARLINK-5148,PAYLOAD,2024-04-15 08:32:31,15.08847501,0.0001678,53.2181,91.5254,77.8333,282.2847,7.7366e-05,9.44e-06,0.0,0 STARLINK-5148,1 53978U 22125Q   24106.35592129  .00000944  00000-0  77366-4 0  9993,2 53978  53.2181  91.5254 0001678  77.8333 282.2847 15.08847501 84726,6917.857,95.437,540.883,538.562,0.0
53978.0,STARLINK-5148,PAYLOAD,2024-04-16 03:37:09,15.0884077,0.000155,53.2175,87.9564,90.8489,269.2681,2.3997e-05,9.4e-07,0.0,0 STARLINK-5148,1 53978U 22125Q   24107.15080618  .00000094  00000-0  23997-4 0  9994,2 53978  53.2175  87.9564 0001550  90.8489 269.2681 15.08840770 84911,6917.878,95.438,540.815,538.671,0.0
53978.0,STARLINK-5148,PAYLOAD,2024-04-16 08:23:18,15.08843721,0.0001455,53.2169,87.0656,98.4164,261.6993,4.9574e-05,5.01e-06,0.0,0 STARLINK-5148,1 53978U 22125Q   24107.34952364  .00000501  00000-0  49574-4 0  9993,2 53978  53.2169  87.0656 0001455  98.4164 261.6993 15.08843721 84871,6917.869,95.437,540.741,538.727,0.0
53978.0,STARLINK-5148,PAYLOAD,2024-04-17 01:52:32,15.08854072,0.0001524,53.2177,83.7951,96.8695,263.247,7.1071e-05,8.44e-06,0.0,0 STARLINK-5148,1 53978U 22125Q   24108.07815564  .00000844  00000-0  71071-4 0  9991,2 53978  53.2177  83.7951 0001524  96.8695 263.2470 15.08854072 85059,6917.837,95.437,540.757,538.648,0.0
53978.0,STARLINK-5148,PAYLOAD,2024-04-17 08:14:05,15.08859591,0.0001545,53.2164,82.6047,95.5751,264.5417,0.00023775,3.5e-05,0.0,0 STARLINK-5148,1 53978U 22125Q   24108.34311353  .00003500  00000-0  23775-3 0  9997,2 53978  53.2164  82.6047 0001545  95.5751 264.5417 15.08859591 85024,6917.821,95.436,540.754,538.617,0.0
53978.0,STARLINK-5148,PAYLOAD,2024-04-18 03:18:43,15.08835259,0.0001462,53.2166,79.0369,104.2489,255.8665,2.947e-05,1.81e-06,0.0,0 STARLINK-5148,1 53978U 22125Q   24109.13800808  .00000181  00000-0  29470-4 0  9994,2 53978  53.2166  79.0369 0001462 104.2489 255.8665 15.08835259 85211,6917.895,95.438,540.771,538.748,0.0
53978.0,STARLINK-5148,PAYLOAD,2024-04-18 08:04:53,15.08834574,0.0001363,53.2166,78.1441,87.3581,272.7567,-1.9156e-05,-5.93e-06,0.0,0 STARLINK-5148,1 53978U 22125Q   24109.33672947 -.00000593  00000-0 -19156-4 0  9996,2 53978  53.2166  78.1441 0001363  87.3581 272.7567 15.08834574 85179,6917.897,95.438,540.705,538.819,0.0
53978.0,STARLINK-5148,PAYLOAD,2024-04-19 06:20:17,15.08838987,0.0001453,53.2175,73.98,103.9903,256.125,-3.2667e-06,-3.4e-06,0.0,0 STARLINK-5148,1 53978U 22125Q   24110.26408941 -.00000340  00000-0 -32667-5 0  9994,2 53978  53.2175  73.9800 0001453 103.9903 256.1250 15.08838987 85384,6917.883,95.438,540.754,538.743,0.0
